STARLINK-36655          
1 67834U 26033P   26158.17489136  .00022341  00000+0  81847-3 0  9995
2 67834  42.9992 121.3338 0002705 264.5141  95.5402 15.27596116 18369
STARLINK-36657          
1 67835U 26033Q   26158.18131720  .00018039  00000+0  66311-3 0  9998
2 67835  43.0042 121.3815 0002870 278.3566  81.6961 15.27595206 18360
STARLINK-36650          
1 67836U 26033R   26157.62624912  .00021026  00000+0  77108-3 0  9993
2 67836  43.0025 124.9666 0001563 268.7123  91.3550 15.27593878 18270
STARLINK-36649          
1 67837U 26033S   26157.63652489  .00025972  00000+0  94935-3 0  9996
2 67837  43.0015 125.0412 0002441 264.5480  95.5094 15.27601594 18271
STARLINK-36654          
1 67838U 26033T   26157.62238815  .00020359  00000+0  74698-3 0  9997
2 67838  42.9992 124.9297 0002285 260.3783  99.6811 15.27592729 18270
STARLINK-36652          
1 67839U 26033U   26158.20702640  .00016369  00000+0  60275-3 0  9997
2 67839  42.9989 121.5836 0000807 286.5563  73.5200 15.27594974 18360
STARLINK-36651          
1 67840U 26033V   26158.20316121  .00014935  00000+0  55088-3 0  9997
2 67840  42.9961 121.5472 0000410 297.4414  62.6396 15.27595368 18367
STARLINK-36656          
1 67841U 26033W   26158.19674455  .00021984  00000+0  80544-3 0  9990
2 67841  43.0100 121.5027 0000774  90.6057 269.4884 15.27604644 18367
STARLINK-36653          
1 67842U 26033X   26158.19286846  .00017507  00000+0  64356-3 0  9993
2 67842  43.0030 121.4744 0001146 270.8503  89.2217 15.27613003 18364
STARLINK-36589          
1 67843U 26033Y   26158.18516662  .00017592  00000+0  64714-3 0  9997
2 67843  42.9953 121.4096 0002892 112.9097 247.2060 15.27584768 18367
STARLINK-36598          
1 67844U 26033Z   26158.16475876  .00022500  00000+0  82420-3 0  9996
2 67844  43.0026 122.1281 0001859 263.9588  96.1052 15.27597701 18351
STARLINK-36606          
1 67845U 26033AA  26158.18260034  .00019570  00000+0  71849-3 0  9993
2 67845  43.0002 121.3849 0001695 276.7355  83.3304 15.27593111 18369
STARLINK-36658          
1 67846U 26033AB  26157.63395816  .00023820  00000+0  87183-3 0  9991
2 67846  43.0038 125.0238 0002316 262.9796  97.0792 15.27597743 18277
STARLINK-36618          
1 67847U 26033AC  26158.16944342  .00036269  00000+0  12857-2 0  9991
2 67847  43.0017 107.1117 0000502 201.3349 158.7482 15.28468118 18521
STARLINK-36660          
1 67848U 26033AD  26157.63136984  .00027121  00000+0  99047-3 0  9992
2 67848  43.0052 125.0022 0006194 263.8552  96.1594 15.27598956 18271
STARLINK-36602          
1 67849U 26033AE  26158.16861407  .00021841  00000+0  79989-3 0  9993
2 67849  43.0009 122.1574 0000594 189.1398 170.9443 15.27619467 18354
STARLINK-36840          
1 67850U 26034A   26158.25973486  .00032226  00000+0  10947-2 0  9994
2 67850  53.1574 147.9157 0002923 102.5915 257.5413 15.30219335 17755
STARLINK-36348          
1 67851U 26034B   26157.26746056  .00037794  00000+0  12813-2 0  9995
2 67851  53.1586 153.0990 0000919  82.8128 277.2978 15.30210822 17590
STARLINK-36276          
1 67852U 26034C   26157.26429388  .00016240  00000+0  55902-3 0  9992
2 67852  53.1586 153.0837 0000991  89.5276 270.5839 15.30212170 17599
STARLINK-36785          
1 67853U 26034D   26157.69933275  .00035646  00000+0  12095-2 0  9991
2 67853  53.1575 150.7894 0001214  87.6543 272.4597 15.30211218 17662
STARLINK-36608          
1 67854U 26034E   26158.27344239  .00020320  00000+0  69686-3 0  9995
2 67854  53.1560 147.9698 0001804  79.9387 280.1818 15.30173564 17744
STARLINK-36838          
1 67855U 26034F   26158.25005787 -.00000136  00000+0  73998-5 0  9993
2 67855  53.1583 148.0187 0001338  87.1366 176.8438 15.31693251  5821
STARLINK-36843          
1 67856U 26034G   26158.26078789  .00031655  00000+0  10756-2 0  9996
2 67856  53.1569 147.9103 0002918  99.2640 260.8691 15.30219865 17750
STARLINK-36828          
1 67857U 26034H   26158.26395214  .00032174  00000+0  10929-2 0  9991
2 67857  53.1568 147.9113 0003493 102.7121 257.4270 15.30221590 17757
STARLINK-36837          
1 67858U 26034J   26157.69440369  .00033265  00000+0  99089-3 0  9997
2 67858  53.1594 148.6494 0001171  86.7231 273.3905 15.34412692 17695
STARLINK-36393          
1 67859U 26034K   26157.17180245  .00040225  00000+0  12998-2 0  9992
2 67859  53.1573 152.4714 0001709 125.5637 234.5524 15.31729245 17597
STARLINK-35873          
1 67860U 26034L   26158.24929236  .00013500  00000+0  46707-3 0  9996
2 67860  53.1575 148.5370 0002672  92.3975 267.7332 15.30201805 17772
STARLINK-36325          
1 67861U 26034M   26157.52767726  .00049247  00000+0  16656-2 0  9997
2 67861  53.1582 151.8545 0001191 128.0125 232.0983 15.30165963 17637
STARLINK-36332          
1 67862U 26034N   26158.24295864  .00033925  00000+0  11514-2 0  9991
2 67862  53.1595 148.4969 0001042  68.3698 291.7414 15.30224573 17746
STARLINK-36835          
1 67863U 26034P   26158.23979473  .00017888  00000+0  61443-3 0  9993
2 67863  53.1598 148.4740 0002588  96.4551 263.6744 15.30209504 17744
