OBJECT_NAME,OBJECT_ID,EPOCH,MEAN_MOTION,ECCENTRICITY,INCLINATION,RA_OF_ASC_NODE,ARG_OF_PERICENTER,MEAN_ANOMALY,EPHEMERIS_TYPE,CLASSIFICATION_TYPE,NORAD_CAT_ID,ELEMENT_SET_NO,REV_AT_EPOCH,BSTAR,MEAN_MOTION_DOT,MEAN_MOTION_DDOT
STARLINK-36655,2026-033P,2026-06-07T04:11:50.613504,15.27596116,.00027053,42.9992,121.3338,264.5141,95.5402,0,U,67834,999,1836,.81846821E-3,.22341E-3,0
STARLINK-36657,2026-033Q,2026-06-07T04:21:05.806080,15.27595206,.00028704,43.0042,121.3815,278.3566,81.6961,0,U,67835,999,1836,.66311047E-3,.18039E-3,0
STARLINK-36650,2026-033R,2026-06-06T15:01:47.923968,15.27593878,.00015637,43.0025,124.9666,268.7123,91.3550,0,U,67836,999,1827,.77108436E-3,.21026E-3,0
STARLINK-36649,2026-033S,2026-06-06T15:16:35.750496,15.27601594,.00024412,43.0015,125.0412,264.5480,95.5094,0,U,67837,999,1827,.94934521E-3,.25972E-3,0
STARLINK-36654,2026-033T,2026-06-06T14:56:14.336160,15.27592729,.00022854,42.9992,124.9297,260.3783,99.6811,0,U,67838,999,1827,.74698004E-3,.20359E-3,0
STARLINK-36652,2026-033U,2026-06-07T04:58:07.080960,15.27594974,.00008075,42.9989,121.5836,286.5563,73.5200,0,U,67839,999,1836,.60275018E-3,.16369E-3,0
STARLINK-36651,2026-033V,2026-06-07T04:52:33.128544,15.27595368,.00004106,42.9961,121.5472,297.4414,62.6396,0,U,67840,999,1836,.55087998E-3,.14935E-3,0
STARLINK-36656,2026-033W,2026-06-07T04:43:18.729120,15.27604644,.00007744,43.0100,121.5027,90.6057,269.4884,0,U,67841,999,1836,.8054374E-3,.21984E-3,0
STARLINK-36653,2026-033X,2026-06-07T04:37:43.834944,15.27613003,.0001146,43.0030,121.4744,270.8503,89.2217,0,U,67842,999,1836,.64355939E-3,.17507E-3,0
STARLINK-36589,2026-033Y,2026-06-07T04:26:38.395968,15.27584768,.0002892,42.9953,121.4096,112.9097,247.2060,0,U,67843,999,1836,.64713988E-3,.17592E-3,0
STARLINK-36598,2026-033Z,2026-06-07T03:57:15.156864,15.27597701,.00018598,43.0026,122.1281,263.9588,96.1052,0,U,67844,999,1835,.82420333E-3,.225E-3,0
STARLINK-36606,2026-033AA,2026-06-07T04:22:56.669376,15.27593111,.00016955,43.0002,121.3849,276.7355,83.3304,0,U,67845,999,1836,.71849061E-3,.1957E-3,0
STARLINK-36658,2026-033AB,2026-06-06T15:12:53.985024,15.27597743,.00023165,43.0038,125.0238,262.9796,97.0792,0,U,67846,999,1827,.87182532E-3,.2382E-3,0
STARLINK-36618,2026-033AC,2026-06-07T04:03:59.911488,15.28468118,.00005029,43.0017,107.1117,201.3349,158.7482,0,U,67847,999,1852,.12857293E-2,.36269E-3,0
STARLINK-36660,2026-033AD,2026-06-06T15:09:10.354176,15.27598956,.00061947,43.0052,125.0022,263.8552,96.1594,0,U,67848,999,1827,.99046921E-3,.27121E-3,0
STARLINK-36602,2026-033AE,2026-06-07T04:02:48.255648,15.27619467,.00005942,43.0009,122.1574,189.1398,170.9443,0,U,67849,999,1835,.79988667E-3,.21841E-3,0
STARLINK-36840,2026-034A,2026-06-07T06:14:01.091904,15.30219335,.00029239,53.1574,147.9157,102.5915,257.5413,0,U,67850,999,1775,.10947405E-2,.32226E-3,0
STARLINK-36348,2026-034B,2026-06-06T06:25:08.592384,15.30210822,.00009191,53.1586,153.0990,82.8128,277.2978,0,U,67851,999,1759,.12812557E-2,.37794E-3,0
STARLINK-36276,2026-034C,2026-06-06T06:20:34.991232,15.30212170,.00009917,53.1586,153.0837,89.5276,270.5839,0,U,67852,999,1759,.55901698E-3,.1624E-3,0
STARLINK-36785,2026-034D,2026-06-06T16:47:02.349600,15.30211218,.00012148,53.1575,150.7894,87.6543,272.4597,0,U,67853,999,1766,.12094607E-2,.35646E-3,0
STARLINK-36608,2026-034E,2026-06-07T06:33:45.422496,15.30173564,.00018048,53.1560,147.9698,79.9387,280.1818,0,U,67854,999,1774,.69685942E-3,.2032E-3,0
STARLINK-36838,2026-034F,2026-06-07T06:00:04.999968,15.31693251,.00013382,53.1583,148.0187,87.1366,176.8438,0,U,67855,999,582,.7399825E-5,-.136E-5,0
STARLINK-36843,2026-034G,2026-06-07T06:15:32.073696,15.30219865,.00029187,53.1569,147.9103,99.2640,260.8691,0,U,67856,999,1775,.10756241E-2,.31655E-3,0
STARLINK-36828,2026-034H,2026-06-07T06:20:05.464896,15.30221590,.0003493,53.1568,147.9113,102.7121,257.4270,0,U,67857,999,1775,.10928934E-2,.32174E-3,0
STARLINK-36837,2026-034J,2026-06-06T16:39:56.478816,15.34412692,.00011717,53.1594,148.6494,86.7231,273.3905,0,U,67858,999,1769,.99089204E-3,.33265E-3,0
STARLINK-36393,2026-034K,2026-06-06T04:07:23.731680,15.31729245,.00017092,53.1573,152.4714,125.5637,234.5524,0,U,67859,999,1759,.12998349E-2,.40225E-3,0
STARLINK-35873,2026-034L,2026-06-07T05:58:58.859904,15.30201805,.00026723,53.1575,148.5370,92.3975,267.7332,0,U,67860,999,1777,.46707289E-3,.135E-3,0
STARLINK-36325,2026-034M,2026-06-06T12:39:51.315264,15.30165963,.00011913,53.1582,151.8545,128.0125,232.0983,0,U,67861,999,1763,.16656313E-2,.49247E-3,0
STARLINK-36332,2026-034N,2026-06-07T05:49:51.626496,15.30224573,.00010423,53.1595,148.4969,68.3698,291.7414,0,U,67862,999,1774,.115144E-2,.33925E-3,0
STARLINK-36835,2026-034P,2026-06-07T05:45:18.264672,15.30209504,.00025886,53.1598,148.4740,96.4551,263.6744,0,U,67863,999,1774,.61443488E-3,.17888E-3,0
